OBJECT H                
1 68022U 26040H   26064.75001157 -.00648325  17077-3 -60393-3 0  9993
2 68022  97.2855  12.5249 0001599  57.0305 307.9489 16.12214576  1784
OBJECT J                
1 68023U 26040J   26064.75001157 -.00568349  13382-3 -52645-3 0  9997
2 68023  97.2854  12.5252 0001263  63.5408 302.2320 16.12288742  1780
OBJECT K                
1 68024U 26040K   26064.75001157 -.00569274  13449-3 -52229-3 0  9998
2 68024  97.2855  12.5258 0001342  72.4330 294.2680 16.12430766  1783
OBJECT L                
1 68025U 26040L   26064.75001157 -.00569120  13488-3 -51381-3 0  9990
2 68025  97.2855  12.5261 0001576  66.6227 301.7633 16.12668967  1730
OBJECT M                
1 68026U 26040M   26064.75001157 -.00560142  13072-3 -50988-3 0  9997
2 68026  97.2853  12.5256 0001224  60.0568 307.5086 16.12546915  1788
OBJECT N                
1 68027U 26040N   26064.75001157 -.00498207  10832-3 -39256-3 0  9996
2 68027  97.2836  12.5354 0001897  62.2483 326.1838 16.14643282  1885
OBJECT P                
1 68028U 26040P   26064.75001157 -.01521433  79102-3 -18098-2 0  9991
2 68028  97.2831  12.5255 0001069  71.5712 295.0818 16.08588380  1893
OBJECT Q                
1 68029U 26040Q   26064.75001157 -.00527056  11703-3 -47332-3 0  9995
2 68029  97.2848  12.5265 0001819  68.9815 300.1861 16.12740359  1785
OBJECT R                
1 68030U 26040R   26064.75001157 -.00541983  12350-3 -48266-3 0  9998
2 68030  97.2853  12.5266 0001520  61.6858 308.3118 16.12867944  1785
OBJECT S                
1 68031U 26040S   26064.75001157 -.00539992  12287-3 -47694-3 0  9999
2 68031  97.2851  12.5269 0001437  55.4582 315.3597 16.12989327  1788
OBJECT T                
1 68032U 26040T   26064.75001157 -.00389506  67570-4 -32836-3 0  9992
2 68032  97.2847  12.5296 0001641  74.9709 301.5506 16.13650304  1887
OBJECT V                
1 68033U 26040V   26064.75001157 -.00569612  13592-3 -49958-3 0  9998
2 68033  97.2850  12.5272 0001273  54.3470 317.1924 16.13097734  1782
OBJECT W                
1 68034U 26040W   26064.75001157 -.00398022  70055-4 -34194-3 0  9998
2 68034  97.2853  12.5286 0002185  71.1380 303.6486 16.13372833  1780
OBJECT X                
1 68035U 26040X   26064.75001157 -.00524594  11836-3 -42833-3 0  9994
2 68035  97.2842  12.5324 0001393  59.4555 321.8681 16.14135427  1837
OBJECT Y                
1 68036U 26040Y   26064.75001157 -.00563678  13389-3 -48385-3 0  9994
2 68036  97.2849  12.5282 0001587  65.0898 308.8565 16.13411905  1783
OBJECT Z                
1 68037U 26040Z   26064.75001157 -.00376436  63271-4 -32097-3 0  9998
2 68037  97.2849  12.5292 0002215  73.6730 302.0953 16.13479716  1730
