[{"OBJECT_NAME":"OBJECT H","OBJECT_ID":"2026-040H","EPOCH":"2026-03-05T18:00:00.998784","MEAN_MOTION":16.12214576,"ECCENTRICITY":0.0001599,"INCLINATION":97.2855,"RA_OF_ASC_NODE":12.5249,"ARG_OF_PERICENTER":57.0305,"MEAN_ANOMALY":307.9489,"EPHEMERIS_TYPE":0,"CLASSIFICATION_TYPE":"U","NORAD_CAT_ID":68022,"ELEMENT_SET_NO":999,"REV_AT_EPOCH":178,"BSTAR":-0.00060393,"MEAN_MOTION_DOT":-0.00648325,"MEAN_MOTION_DDOT":0.00017077},{"OBJECT_NAME":"OBJECT J","OBJECT_ID":"2026-040J","EPOCH":"2026-03-05T18:00:00.998784","MEAN_MOTION":16.12288742,"ECCENTRICITY":0.0001264,"INCLINATION":97.2854,"RA_OF_ASC_NODE":12.5252,"ARG_OF_PERICENTER":63.5408,"MEAN_ANOMALY":302.232,"EPHEMERIS_TYPE":0,"CLASSIFICATION_TYPE":"U","NORAD_CAT_ID":68023,"ELEMENT_SET_NO":999,"REV_AT_EPOCH":178,"BSTAR":-0.00052645,"MEAN_MOTION_DOT":-0.00568349,"MEAN_MOTION_DDOT":0.00013382},{"OBJECT_NAME":"OBJECT K","OBJECT_ID":"2026-040K","EPOCH":"2026-03-05T18:00:00.998784","MEAN_MOTION":16.12430766,"ECCENTRICITY":0.0001342,"INCLINATION":97.2855,"RA_OF_ASC_NODE":12.5258,"ARG_OF_PERICENTER":72.433,"MEAN_ANOMALY":294.268,"EPHEMERIS_TYPE":0,"CLASSIFICATION_TYPE":"U","NORAD_CAT_ID":68024,"ELEMENT_SET_NO":999,"REV_AT_EPOCH":178,"BSTAR":-0.00052229,"MEAN_MOTION_DOT":-0.00569274,"MEAN_MOTION_DDOT":0.00013449},{"OBJECT_NAME":"OBJECT L","OBJECT_ID":"2026-040L","EPOCH":"2026-03-05T18:00:00.998784","MEAN_MOTION":16.12668967,"ECCENTRICITY":0.0001577,"INCLINATION":97.2855,"RA_OF_ASC_NODE":12.5261,"ARG_OF_PERICENTER":66.6227,"MEAN_ANOMALY":301.7633,"EPHEMERIS_TYPE":0,"CLASSIFICATION_TYPE":"U","NORAD_CAT_ID":68025,"ELEMENT_SET_NO":999,"REV_AT_EPOCH":173,"BSTAR":-0.00051381,"MEAN_MOTION_DOT":-0.0056912,"MEAN_MOTION_DDOT":0.00013488},{"OBJECT_NAME":"OBJECT M","OBJECT_ID":"2026-040M","EPOCH":"2026-03-05T18:00:00.998784","MEAN_MOTION":16.12546915,"ECCENTRICITY":0.0001224,"INCLINATION":97.2853,"RA_OF_ASC_NODE":12.5256,"ARG_OF_PERICENTER":60.0568,"MEAN_ANOMALY":307.5086,"EPHEMERIS_TYPE":0,"CLASSIFICATION_TYPE":"U","NORAD_CAT_ID":68026,"ELEMENT_SET_NO":999,"REV_AT_EPOCH":178,"BSTAR":-0.00050988,"MEAN_MOTION_DOT":-0.00560142,"MEAN_MOTION_DDOT":0.00013072},{"OBJECT_NAME":"OBJECT N","OBJECT_ID":"2026-040N","EPOCH":"2026-03-05T18:00:00.998784","MEAN_MOTION":16.14643282,"ECCENTRICITY":0.0001897,"INCLINATION":97.2836,"RA_OF_ASC_NODE":12.5354,"ARG_OF_PERICENTER":62.2483,"MEAN_ANOMALY":326.1838,"EPHEMERIS_TYPE":0,"CLASSIFICATION_TYPE":"U","NORAD_CAT_ID":68027,"ELEMENT_SET_NO":999,"REV_AT_EPOCH":188,"BSTAR":-0.00039256,"MEAN_MOTION_DOT":-0.00498207,"MEAN_MOTION_DDOT":0.00010832},{"OBJECT_NAME":"OBJECT P","OBJECT_ID":"2026-040P","EPOCH":"2026-03-05T18:00:00.998784","MEAN_MOTION":16.0858838,"ECCENTRICITY":0.0001069,"INCLINATION":97.2831,"RA_OF_ASC_NODE":12.5255,"ARG_OF_PERICENTER":71.5712,"MEAN_ANOMALY":295.0818,"EPHEMERIS_TYPE":0,"CLASSIFICATION_TYPE":"U","NORAD_CAT_ID":68028,"ELEMENT_SET_NO":999,"REV_AT_EPOCH":189,"BSTAR":-0.0018098,"MEAN_MOTION_DOT":-0.01521433,"MEAN_MOTION_DDOT":0.00079102},{"OBJECT_NAME":"OBJECT Q","OBJECT_ID":"2026-040Q","EPOCH":"2026-03-05T18:00:00.998784","MEAN_MOTION":16.12740359,"ECCENTRICITY":0.0001819,"INCLINATION":97.2848,"RA_OF_ASC_NODE":12.5265,"ARG_OF_PERICENTER":68.9815,"MEAN_ANOMALY":300.1861,"EPHEMERIS_TYPE":0,"CLASSIFICATION_TYPE":"U","NORAD_CAT_ID":68029,"ELEMENT_SET_NO":999,"REV_AT_EPOCH":178,"BSTAR":-0.00047332,"MEAN_MOTION_DOT":-0.00527056,"MEAN_MOTION_DDOT":0.00011703},{"OBJECT_NAME":"OBJECT R","OBJECT_ID":"2026-040R","EPOCH":"2026-03-05T18:00:00.998784","MEAN_MOTION":16.12867943,"ECCENTRICITY":0.000152,"INCLINATION":97.2853,"RA_OF_ASC_NODE":12.5266,"ARG_OF_PERICENTER":61.6858,"MEAN_ANOMALY":308.3118,"EPHEMERIS_TYPE":0,"CLASSIFICATION_TYPE":"U","NORAD_CAT_ID":68030,"ELEMENT_SET_NO":999,"REV_AT_EPOCH":178,"BSTAR":-0.00048265,"MEAN_MOTION_DOT":-0.00541983,"MEAN_MOTION_DDOT":0.0001235},{"OBJECT_NAME":"OBJECT S","OBJECT_ID":"2026-040S","EPOCH":"2026-03-05T18:00:00.998784","MEAN_MOTION":16.12989327,"ECCENTRICITY":0.0001438,"INCLINATION":97.2851,"RA_OF_ASC_NODE":12.5269,"ARG_OF_PERICENTER":55.4582,"MEAN_ANOMALY":315.3597,"EPHEMERIS_TYPE":0,"CLASSIFICATION_TYPE":"U","NORAD_CAT_ID":68031,"ELEMENT_SET_NO":999,"REV_AT_EPOCH":178,"BSTAR":-0.00047694,"MEAN_MOTION_DOT":-0.00539992,"MEAN_MOTION_DDOT":0.00012287},{"OBJECT_NAME":"OBJECT T","OBJECT_ID":"2026-040T","EPOCH":"2026-03-05T18:00:00.998784","MEAN_MOTION":16.13650304,"ECCENTRICITY":0.0001641,"INCLINATION":97.2847,"RA_OF_ASC_NODE":12.5296,"ARG_OF_PERICENTER":74.9709,"MEAN_ANOMALY":301.5506,"EPHEMERIS_TYPE":0,"CLASSIFICATION_TYPE":"U","NORAD_CAT_ID":68032,"ELEMENT_SET_NO":999,"REV_AT_EPOCH":188,"BSTAR":-0.00032836,"MEAN_MOTION_DOT":-0.00389506,"MEAN_MOTION_DDOT":6.757e-5},{"OBJECT_NAME":"OBJECT V","OBJECT_ID":"2026-040V","EPOCH":"2026-03-05T18:00:00.998784","MEAN_MOTION":16.13097734,"ECCENTRICITY":0.0001273,"INCLINATION":97.285,"RA_OF_ASC_NODE":12.5272,"ARG_OF_PERICENTER":54.347,"MEAN_ANOMALY":317.1924,"EPHEMERIS_TYPE":0,"CLASSIFICATION_TYPE":"U","NORAD_CAT_ID":68033,"ELEMENT_SET_NO":999,"REV_AT_EPOCH":178,"BSTAR":-0.00049958,"MEAN_MOTION_DOT":-0.00569612,"MEAN_MOTION_DDOT":0.00013592},{"OBJECT_NAME":"OBJECT W","OBJECT_ID":"2026-040W","EPOCH":"2026-03-05T18:00:00.998784","MEAN_MOTION":16.13372833,"ECCENTRICITY":0.0002186,"INCLINATION":97.2853,"RA_OF_ASC_NODE":12.5286,"ARG_OF_PERICENTER":71.138,"MEAN_ANOMALY":303.6486,"EPHEMERIS_TYPE":0,"CLASSIFICATION_TYPE":"U","NORAD_CAT_ID":68034,"ELEMENT_SET_NO":999,"REV_AT_EPOCH":178,"BSTAR":-0.00034194,"MEAN_MOTION_DOT":-0.00398022,"MEAN_MOTION_DDOT":7.0055e-5},{"OBJECT_NAME":"OBJECT X","OBJECT_ID":"2026-040X","EPOCH":"2026-03-05T18:00:00.998784","MEAN_MOTION":16.14135427,"ECCENTRICITY":0.0001394,"INCLINATION":97.2842,"RA_OF_ASC_NODE":12.5324,"ARG_OF_PERICENTER":59.4555,"MEAN_ANOMALY":321.8681,"EPHEMERIS_TYPE":0,"CLASSIFICATION_TYPE":"U","NORAD_CAT_ID":68035,"ELEMENT_SET_NO":999,"REV_AT_EPOCH":183,"BSTAR":-0.00042833,"MEAN_MOTION_DOT":-0.00524594,"MEAN_MOTION_DDOT":0.00011836},{"OBJECT_NAME":"OBJECT Y","OBJECT_ID":"2026-040Y","EPOCH":"2026-03-05T18:00:00.998784","MEAN_MOTION":16.13411905,"ECCENTRICITY":0.0001588,"INCLINATION":97.2849,"RA_OF_ASC_NODE":12.5282,"ARG_OF_PERICENTER":65.0898,"MEAN_ANOMALY":308.8565,"EPHEMERIS_TYPE":0,"CLASSIFICATION_TYPE":"U","NORAD_CAT_ID":68036,"ELEMENT_SET_NO":999,"REV_AT_EPOCH":178,"BSTAR":-0.00048385,"MEAN_MOTION_DOT":-0.00563678,"MEAN_MOTION_DDOT":0.00013389},{"OBJECT_NAME":"OBJECT Z","OBJECT_ID":"2026-040Z","EPOCH":"2026-03-05T18:00:00.998784","MEAN_MOTION":16.13479716,"ECCENTRICITY":0.0002215,"INCLINATION":97.2849,"RA_OF_ASC_NODE":12.5292,"ARG_OF_PERICENTER":73.673,"MEAN_ANOMALY":302.0953,"EPHEMERIS_TYPE":0,"CLASSIFICATION_TYPE":"U","NORAD_CAT_ID":68037,"ELEMENT_SET_NO":999,"REV_AT_EPOCH":173,"BSTAR":-0.00032097,"MEAN_MOTION_DOT":-0.00376436,"MEAN_MOTION_DDOT":6.3271e-5}]
